0 SCOUT A DEB
1 03122U 67092D   13282.37564450  .00000232  00000-0  46159-3 0  2079
2 03122 089.0843 140.9267 0189980 080.5059 332.7264 13.24708984220415
0 SCOUT A DEB
1 03122U 67092D   13286.84812684  .00000230  00000-0  45761-3 0  2098
2 03122 089.0834 140.5323 0189879 068.2649 061.6639 13.24710724221004
0 SCOUT A DEB
1 03122U 67092D   13289.04332488  .00000246  00000-0  49274-3 0  2104
2 03122 089.0829 140.3384 0189819 062.2539 090.4180 13.24711294221294
0 SCOUT A DEB
1 03122U 67092D   13291.36423553  .00000162  00000-0  31607-3 0  2115
2 03122 089.0827 140.1335 0189720 055.8958 358.6905 13.24712677221605
0 SCOUT A DEB
1 03122U 67092D   13293.79442767  .00000199  00000-0  39282-3 0  2120
2 03122 089.0828 139.9188 0189565 049.2328 068.1430 13.24712742221927
0 SCOUT A DEB
1 03122U 67092D   13296.06097436  .00000171  00000-0  33599-3 0  2138
2 03122 089.0825 139.7185 0189409 043.0107 077.1828 13.24714012222220
